QIANFAN-49              
1 62250U 24232P   25328.84254149  .00000144  00000+0  20496-3 0  9997
2 62250  89.0041  43.0390 0012764 241.3301 118.6568 13.50973444 65424
QIANFAN-50              
1 62251U 24232Q   25328.79316221  .00000218  00000+0  32002-3 0  9990
2 62251  89.0047  43.0512 0014389 243.5780 116.3895 13.50975086 65441
QIANFAN-51              
1 62252U 24232R   25328.85077436  .00000197  00000+0  28753-3 0  9994
2 62252  89.0041  43.0403 0011787 246.5307 113.4606 13.50973380 65445
QIANFAN-52              
1 62253U 24232S   25328.80551788  .00000218  00000+0  31905-3 0  9994
2 62253  89.0037  42.9192 0013970 238.9585 121.0195 13.50978830 65525
QIANFAN-53              
1 62254U 24232T   25328.78493194  .00000202  00000+0  29473-3 0  9998
2 62254  89.0044  43.0244 0012829 239.7069 120.2813 13.50973851 65483
QIANFAN-54              
1 62255U 24232U   25328.82612416  .00000196  00000+0  28461-3 0  9992
2 62255  89.0035  42.7004 0000146 292.3969  67.7166 13.50974014 96995
QIANFAN-55              
1 62785U 25016A   25328.85235498  .00000123  00000+0  17124-3 0  9999
2 62785  88.9767 105.0546 0018178  44.7625 315.4989 13.50981790 44773
QIANFAN-56              
1 62786U 25016B   25328.64645364  .00000109  00000+0  15036-3 0  9998
2 62786  88.9740 104.9172 0016906  48.0001 312.2587 13.50982471 44798
